satname,norad_id,inclination_deg,eccentricity,mean_motion_rev_per_day,perigee_km,apogee_km,l1,l2
STARLINK-1573,46061,53.1599,0.0001136,15.31704213,469.94940552067146,471.5054675206484,1 46061U 20055AL  26176.85094182  .00001432  00000+0  57890-4 0  9990,2 46061  53.1599 330.6786 0001136  72.9976 287.1150 15.31704213325646
STARLINK-1577,46063,53.1618,0.0001111,15.31721266,469.91569992837503,471.4375063109892,1 46063U 20055AN  26176.81363981  .00000388  00000+0  24263-4 0  9991,2 46063  53.1618 330.8469 0001111  83.0526 277.0602 15.31721266325633
STARLINK-1583,46064,53.1604,0.0001199,15.3169946,469.92042439329,471.5627854827544,1 46064U 20055AP  26176.69720628 -.00000362  00000+0  10536-6 0  9996,2 46064  53.1604 331.8910 0001199  89.9061 270.2078 15.31699460325605
STARLINK-1536,46070,53.16,9.52e-05,15.31707205,470.06650653448287,471.3705286250297,1 46070U 20055AV  26176.69849101  .00000717  00000+0  34850-4 0  9997,2 46070  53.1600 319.2707 0000952  74.9370 285.1736 15.31707205325787
STARLINK-1542,46073,53.1602,0.0001147,15.31707136,469.93315951210207,471.50428701501824,1 46073U 20055AY  26176.78811432  .00002761  00000+0  10069-3 0  9992,2 46073  53.1602 321.8227 0001147  70.8820 289.2306 15.31707136325747
STARLINK-1549,46074,53.0489,0.0001418,15.33051733,465.7429107045509,467.6841103093311,1 46074U 20055AZ  26176.91668980  .00052560  00000+0  16233-2 0  9996,2 46074  53.0489 318.2750 0001418  94.1864  67.3912 15.33051733  5907
STARLINK-1551,46075,53.1589,3.35e-05,15.31703146,470.5011801142282,470.9600542445787,1 46075U 20055BA  26176.68948649 -.00003008  00000+0 -85231-4 0  9995,2 46075  53.1589 319.2484 0000335 112.1773 247.9264 15.31703146325778
STARLINK-1552,46076,53.1613,0.0001115,15.31705415,469.9602054548168,471.4875014251347,1 46076U 20055BB  26176.67546181  .00000289  00000+0  21060-4 0  9996,2 46076  53.1613 318.8991 0001115  76.9153 283.1973 15.31705415325760
STARLINK-1559,46077,53.0213,0.0002238,15.40008022,444.5583583141106,447.6128803585261,1 46077U 20055BC  26176.71542855  .00051802  00000+0  12797-2 0  9998,2 46077  53.0213 286.9855 0002238 334.4997  25.5896 15.40008022326173
STARLINK-1566,46079,53.1601,0.0001258,15.31696138,469.8899174966091,471.61309784513924,1 46079U 20055BE  26176.81060313  .00003494  00000+0  12433-3 0  9997,2 46079  53.1601 318.1232 0001258  77.5902 282.5240 15.31696138325804
STARLINK-1568,46080,53.0566,0.0003153,15.55754371,397.82351791622386,402.09778629564244,1 46080U 20055BF  26176.55275922  .00049826  00000+0  71238-3 0  9991,2 46080  53.0566 234.6903 0003153  64.2514 295.8821 15.55754371326937
STARLINK-1578,46082,53.1605,0.0001075,15.31711347,469.96991997706937,471.4424212587519,1 46082U 20055BH  26176.81500492  .00007274  00000+0  24584-3 0  9998,2 46082  53.1605 318.6191 0001075  98.3427 261.7696 15.31711347325793
STARLINK-1579,46083,53.1603,0.0001377,15.31704859,469.7824224700371,471.6685992055218,1 46083U 20055BJ  26176.67078707 -.00002007  00000+0 -52924-4 0  9993,2 46083  53.1603 318.8232 0001377  82.7316 277.3842 15.31704859325773
STARLINK-1622,46128,53.0118,0.0004458,15.93103847,290.6287956346978,296.5773190698337,1 46128U 20057M   26176.91668980  .00349672  58156-4  97957-3 0  9994,2 46128  53.0118  44.0862 0004458 196.7887 272.7984 15.93103847  5951
STARLINK-1623,46129,53.0385,0.0004027,15.7918936,330.0337645992122,335.4387019012711,1 46129U 20057N   26176.04670749  .00173565  00000+0  93396-3 0  9994,2 46129  53.0385  88.2630 0004027 111.4301 248.7150 15.79189360323744
STARLINK-1596,46141,53.0338,0.0005071,15.62938602,375.74719283016475,382.60045746903234,1 46141U 20057AA  26176.69142981  .00101334  00000+0  10903-2 0  9998,2 46141  53.0338  69.5725 0005071 105.3297 254.8277 15.62938602324066
STARLINK-1597,46142,53.0385,0.0004416,15.78646244,331.31114547852667,337.2395480631949,1 46142U 20057AB  26176.15443301  .00174446  00000+0  96177-3 0  9992,2 46142  53.0385 127.5202 0004416  94.5141 265.6384 15.78646244323190
STARLINK-1606,46144,53.0261,0.0009216,16.23714379,203.4150444573379,215.55735153588557,1 46144U 20057AD  26176.82899397  .02767466  11900-4  10241-2 0  9993,2 46144  53.0261  73.3275 0009216 243.3314 116.6782 16.23714379312261
STARLINK-1608,46146,53.1555,0.0005937,15.37659091,448.9779822126811,457.08931424038656,1 46146U 20057AF  26176.67071566  .00047635  00000+0  12716-2 0  9998,2 46146  53.1555 165.5736 0005937  37.9871 322.1550 15.37659091322741
STARLINK-1667,46155,53.0063,0.0007668,16.06572094,251.1763972625822,261.3509141081413,1 46155U 20057AQ  26176.98304657  .00839890  38023-3  10832-2 0  9991,2 46155  53.0063  41.7427 0007668 238.0336 121.9951 16.06572094325702
STARLINK-1545,46156,53.0341,0.0006091,15.96164129,281.0140720847794,289.13119405978705,1 46156U 20057AR  26176.91668980  .00400348  75868-4  94998-3 0  9994,2 46156  53.0341  79.3706 0006091 229.9414   0.4600 15.96164129  6009
STARLINK-1595,46159,53.0378,0.0005174,15.76347916,337.3218861926989,344.2746404031586,1 46159U 20057AU  26176.59153877  .00156316  00000+0  95686-3 0  9994,2 46159  53.0378 128.3833 0005174  89.2094 270.9518 15.76347916324482
STARLINK-1598,46160,53.0429,3.61e-05,15.75628609,342.600368834399,343.08562359012467,1 46160U 20057AV  26176.82516376  .00132324  00000+0  83944-3 0  9996,2 46160  53.0429 113.4458 0000361  30.5750 329.5290 15.75628609324703
STARLINK-1626,46167,53.0376,0.0002362,15.7959504,330.0023324406711,333.172006138243,1 46167U 20057BC  26176.58405405  .00174321  00000+0  92107-3 0  9990,2 46167  53.0376 123.6326 0002362 143.7881 216.3299 15.79595040323294
STARLINK-1633,46171,53.0312,0.0004522,15.90200531,298.7005966648394,304.7418604467457,1 46171U 20057BG  26176.91668980  .00251471  34244-4  82165-3 0  9998,2 46171  53.0312  81.8042 0004522 217.1451  53.1612 15.90200531  5944
STARLINK-1635,46172,53.0299,0.0007556,16.01982097,263.90767185628465,273.9527198026208,1 46172U 20057BH  26176.91668980  .00614543  18429-3  10458-2 0  9993,2 46172  53.0299  78.5785 0007556 230.6293 124.7703 16.01982097  6056
STARLINK-1640,46173,53.0368,0.0004749,15.76579078,336.95097197541236,343.3319928780211,1 46173U 20057BJ  26176.88061461  .00150631  00000+0  91358-3 0  9995,2 46173  53.0368 127.9626 0004749  83.5150 276.6409 15.76579078323251
STARLINK-1641,46174,53.0449,0.0001168,15.64747427,373.1766078595874,374.75389894598356,1 46174U 20057BK  26176.16798456  .00081349  00000+0  81865-3 0  9999,2 46174  53.0449 124.4929 0001168 111.1360 248.9779 15.64747427323246
